[{"OBJECT_NAME":"DTUSAT-2","OBJECT_ID":"2014-033W","EPOCH":"2026-03-09T22:10:18.114528","MEAN_MOTION":15.13540485,"ECCENTRICITY":0.00071331,"INCLINATION":98.0849,"RA_OF_ASC_NODE":60.4732,"ARG_OF_PERICENTER":201.7269,"MEAN_ANOMALY":158.3659,"EPHEMERIS_TYPE":0,"CLASSIFICATION_TYPE":"U","NORAD_CAT_ID":40030,"ELEMENT_SET_NO":999,"REV_AT_EPOCH":63766,"BSTAR":0.00060729373,"MEAN_MOTION_DOT":0.00010825,"MEAN_MOTION_DDOT":0},{"OBJECT_NAME":"STARLINK-5416","OBJECT_ID":"2022-177AM","EPOCH":"2026-03-09T22:00:01.999584","MEAN_MOTION":15.11942411,"ECCENTRICITY":0.0002021,"INCLINATION":43.0002,"RA_OF_ASC_NODE":118.8885,"ARG_OF_PERICENTER":260.24,"MEAN_ANOMALY":33.7143,"EPHEMERIS_TYPE":0,"CLASSIFICATION_TYPE":"U","NORAD_CAT_ID":54855,"ELEMENT_SET_NO":999,"REV_AT_EPOCH":557,"BSTAR":0.001606781,"MEAN_MOTION_DOT":0.00027917,"MEAN_MOTION_DDOT":0}]
